0 DELTA 1 DEB
1 42645U 75052ME  25051.67996843 -.00000071  00000-0 -11038-3 0  9991
2 42645  99.7197   1.3531 0269537 197.2881 286.7947 12.90046957400815
0 DELTA 1 DEB
1 42646U 75052MF  25048.02480055  .00000228  00000-0  52852-3 0  9991
2 42646 100.0100 329.5231 0054452 299.5047  60.0655 13.35933578502283
0 DELTA 1 DEB
1 42647U 75052MG  25048.71957878  .00000068  00000-0  22205-3 0  9991
2 42647  99.6802 221.1838 0065533  28.5154 331.9531 13.32515695 19129
0 DELTA 1 DEB
1 42648U 75052MH  25052.01750802  .00010041  00000-0  13649-1 0  9990
2 42648 100.3402 134.3351 0230809 206.5919 152.3221 13.49031182 58001
0 DELTA 1 DEB
1 42649U 75052MJ  25051.87637885  .00000116  00000-0  29508-3 0  9994
2 42649  99.8211 291.4215 0034992 325.5822  34.3040 13.39060001554556
0 DELTA 1 DEB
1 42651U 75052ML  25047.34968682  .00000359  00000-0  63094-3 0  9993
2 42651  99.2690   5.9129 0157409 330.8135 184.3947 13.45008653505999
0 DELTA 1 DEB
1 42652U 75052MM  25049.73665182  .00000357  00000-0  80413-3 0  9990
2 42652  99.7148 215.5549 0072397  55.5942 316.5205 13.32891514546844
0 DELTA 1 DEB
1 42653U 75052MN  25051.32765229  .00000019  00000-0  12398-3 0  9994
2 42653  99.7132 216.9484 0069152  69.7598  46.6376 13.30786498546404
0 DELTA 1 DEB
1 42655U 75052MQ  25050.87077778  .00000036  00000-0  11029-3 0  9999
2 42655  99.5911  80.1058 0571735 132.6706 232.4057 12.98253599964479
0 DELTA 1 DEB
1 42656U 75052MR  25050.74341978  .00000266  00000-0  60884-3 0  9990
2 42656  99.6691 242.9988 0067416   3.9731 356.1917 13.34224125547469
0 DELTA 1 DEB
1 42657U 75052MS  25051.95313818  .00000065  00000-0  15786-3 0  9995
2 42657  99.7134 315.7434 0045993 111.7374 248.8667 13.54423553556035
0 DELTA 1 DEB
1 42659U 75052MU  25050.54200324  .00015896  00000-0  15987-2 0  9998
2 42659  98.1738 152.5675 0001411 132.4871 285.0365 14.91306789734627
0 DELTA 1 DEB
1 42661U 75052MW  25049.78423308  .00002430  00000-0  75385-3 0  9993
2 42661  98.7930  47.7387 0002981 307.3709  52.7208 14.42070936590231
0 MIDAS 4 DEB
1 42664U 61028K   25045.22013491  .00000102  00000-0  44830-1 0  9990
2 42664  95.8414 134.1529 0341627 345.8100  13.3351  8.69041711308064
0 TRANSIT 5B-2 DEB
1 42666U 63049P   25051.06607716  .00450354  00000-0  41745-1 0  9995
2 42666  89.8600  72.7737 0013618 350.7384  63.0383 14.92295442567855
0 ERS 1 DEB
1 42669U 91050T   25051.87617541  .00039385  00000-0  47180-2 0  9994
2 42669  98.5758  52.9092 0018619 113.6177 246.6992 14.83828840419401
0 CZ-4C DEB
1 42670U 15069C   25051.41491315  .00014122  00000-0  56272-3 0  9996
2 42670  97.5416 113.2097 0069677  63.8631 296.9752 15.23056464459507
0 CZ-4C DEB
1 42671U 15069D   25050.87380321  .00009905  00000-0  14362-2 0  9996
2 42671  97.8477 283.8796 0126385 126.5592 234.7327 14.70860293485423
0 CZ-4C DEB
1 42672U 15069E   25051.61922270  .00020506  00000-0  21427-2 0  9995
2 42672  98.2442  11.2355 0106861  95.2976 266.0442 14.85523563487149
0 YAOGAN 29 DEB
1 42673U 15069F   25051.84945942  .00002247  00000-0  24143-3 0  9993
2 42673  97.9317  82.3063 0004218 140.1147 220.0380 14.89567993500286
0 YAOGAN 30 DEB
1 42676U 16029B   25051.32074106  .00003571  00000-0  10427-2 0  9991
2 42676  98.0750 268.0674 0239434  95.5898 267.2642 14.29230142443174
0 YAOGAN 30 DEB
1 42677U 16029C   25050.65792423  .00003855  00000-0  11361-2 0  9999
2 42677  97.9467 204.4203 0237271  62.1543 300.3463 14.29013877442885
0 GAOFEN 3 DEB
1 42678U 16049C   25051.81621107  .00000584  00000-0  17439-3 0  9990
2 42678  98.3305  66.7438 0009036  24.4805 335.6815 14.46420388444320
0 GAOFEN 3 DEB
1 42679U 16049D   25051.82097205  .00000575  00000-0  17244-3 0  9992
2 42679  98.3327  66.6265 0007244  29.6994 330.4608 14.46317388450243
0 GAOFEN 3 DEB
1 42680U 16049E   25051.24343470  .00004989  00000-0  13130-2 0  9990
2 42680  98.4394  60.7647 0017420 139.4828 220.7666 14.49407678446461
0 ARIANE 5 DEB (SYLDA)
1 42694U 17023D   25051.54959395  .00001725  00000-0  27823-2 0  9999
2 42694   3.7829 288.2337 5542876 343.7244   3.9739  4.55830339 94197
0 ARIANE 5 DEB (SYLDA)
1 42743U 17029D   25049.65703877  .00038685  00000-0  10250-1 0  9991
2 42743   5.9613 161.3646 6562529 333.9502   4.1993  3.22321498 72743
0 BREEZE-M DEB (TANK)
1 42751U 17032C   25051.37978552  .00005081  00000-0  95555-3 0  9997
2 42751  49.7286  32.3978 4563351 200.4979 132.9440  6.34197338175434
0 ARIANE 5 DEB (SYLDA)
1 42817U 17040D   25051.17106805  .00015457  00000-0  56200-2 0  9992
2 42817   2.8164  87.3343 5816693 117.3508 312.5110  4.27873374 89337
0 BREEZE-M DEB (TANK)
1 42908U 17046B   25051.67412068  .00000093  00000-0  35177-3 0  9996
2 42908  48.5856 274.8396 7106072 323.5876   4.6670  2.37880198 63757
0 BREEZE-M DEB (TANK)
1 42936U 17053C   25051.22939566  .00014024  00000-0  20042-2 0  9996
2 42936  49.4985 299.4630 5140760  28.4591 351.9716  5.40061048143705
0 BREEZE-M DEB (TANK)
1 42944U 17057C   25051.11711453  .00011934  00000-0  21890-2 0  9999
2 42944  49.7109 347.0560 5148278 338.4448   6.0231  5.37036711142113
0 SL-12 DEB
1 42974U 10041P   25049.99777758  .00000497  00000-0  63792-3 0  9991
2 42974  64.7937 241.3746 5718293 330.0058   6.9277  4.32460880117033
0 METEOR 1-16 DEB
1 42999U 74011C   25051.89574248  .00006303  00000-0  21889-2 0  9998
2 42999  81.2313 118.7581 0029665 275.6488  84.1314 14.35206622445502
0 H-2A DEB
1 43068U 17082D   25051.89189300  .00055376  00000-0  17445-2 0  9999
2 43068  97.9813 183.9814 0110988 182.0999 177.9788 15.26832425389138
0 H-2A DEB
1 43069U 17082E   25051.95308241  .00007385  00000-0  18389-2 0  9999
2 43069  98.2950 119.2873 0026859 176.0019 184.1396 14.51748697376765
0 FREGAT DEB (TANK)
1 43089U 17086C   25051.34756168  .00050447  52307-5  10562-2 0  9997
2 43089  50.3697 107.0921 1548243   3.8125 357.3073 12.45003334299083
0 SL-8 DEB
1 43117U 88053E   25050.42341873  .00000466  00000-0  16278-3 0  9997
2 43117  74.0510 112.1125 0019907  21.4841 338.7144 14.37894695373946
0 METEOR 2-13 DEB
1 43151U 85119C   25051.89343476  .00002450  00000-0  18744-2 0  9992
2 43151  82.5376 270.1602 0029621 331.5481  28.4065 13.92826643380886
0 ARIANE 5 DEB (SYLDA)
1 43177U 18012D   25051.46960739  .00019694  00000-0  72243-2 0  9990
2 43177  21.1758  64.2799 7047178  17.2952 357.9171  2.56792478 53084
0 OPS 7613 (P/L 5) DEB
1 43191U 69082LJ  25051.96420851  .00000295  00000-0  25231-3 0  9993
2 43191  70.0143  49.6335 0018421  28.5779 331.6332 13.96216122381476
0 FENGYUN 1C DEB
1 43213U 99025EYM 25050.12534656  .00005120  00000-0  23286-2 0  9993
2 43213  98.7519 116.7659 0054211   6.7656 353.4241 14.21389674361559
0 FENGYUN 1C DEB
1 43214U 99025EYN 25052.16001850  .00004512  00000-0  20453-2 0  9992
2 43214  98.7529 118.9316 0054444   0.4544 359.6673 14.21611929362144
0 CZ-4C DEB
1 43261U 18031C   25052.19807352  .00010691  00000-0  10415-2 0  9998
2 43261  97.8206 132.2970 0003403  55.1070 305.0469 14.92667439372439
0 CZ-4C DEB
1 43263U 18031E   25051.30621610  .00005794  00000-0  81159-3 0  9995
2 43263  97.7045  70.7562 0042524 109.1921 251.3900 14.77256392370139
0 CZ-4C DEB
1 43265U 18031G   25051.90787841  .00012221  00000-0  11604-2 0  9992
2 43265  97.8165 130.8889 0004724  44.7888 315.3712 14.93647999372343
0 CZ-4C DEB
1 43266U 18031H   25051.35959973  .00020775  00000-0  15153-2 0  9995
2 43266  98.1234 197.4872 0024343 122.0526 238.3067 15.03500910374054
0 CZ-4C DEB
1 43270U 18031J   25050.44657255  .00002054  00000-0  28138-3 0  9995
2 43270  97.7861 116.8331 0006376  66.2372 293.9508 14.79510800381538
0 ARIANE 5 DEB (SYLDA)
1 43273U 18033C   25051.35088750  .00013325  00000-0  68097-2 0  9999
2 43273   2.7940   7.7493 5554152 114.9181 311.6326  4.65046985 86547
0 CZ-4C DEB
1 43280U 18034F   25051.91406007  .00000107  00000-0  28961-3 0  9990
2 43280  63.3985 264.3054 0227898   5.9655 354.4002 13.44271719337148
0 CZ-4C DEB
1 43281U 18034G   25052.03858017  .00000095  00000-0  26961-3 0  9991
2 43281  63.3976 259.6610 0229516   6.5683 353.8263 13.44605832337319
0 TITAN 3C TRANSTAGE DEB
1 43282U 69013C   25051.16641216 -.00000155  00000-0  00000+0 0  9999
2 43282   1.0765  35.6492 0287994 251.3263 106.5352  0.91410016 23177
0 TITAN 3C TRANSTAGE DEB
1 43283U 69013D   25051.01331678 -.00000137  00000-0  00000-0 0  9993
2 43283   0.1863 153.4236 0330390  74.1474 129.5822  0.93097612 23606
0 TITAN 3C TRANSTAGE DEB
1 43284U 69013E   25045.55451356 -.00000188  00000-0  00000-0 0  9998
2 43284   0.1764   9.2155 0143073 104.7696 247.4844  0.97232376 24541
0 COSMOS 864 DEB
1 43294U 76108C   25051.70293935  .00000220  00000-0  21035-3 0  9993
2 43294  82.9440 146.0194 0030652  48.2379 312.1390 13.75941774558594
0 METEOR 2-7 DEB
1 43300U 81043X   25051.62871556  .00009904  00000-0  40146-2 0  9998
2 43300  81.2573 180.9727 0028778 339.8998  20.1046 14.27400145486417
0 METEOR 2-7 DEB
1 43301U 81043Y   25050.34748859  .00015307  00000-0  63790-2 0  9990
2 43301  81.2645 188.5213 0041082 354.1489   5.9205 14.25729058445878
0 METEOR 2-7 DEB
1 43302U 81043Z   25049.11142401  .00013348  00000-0  51472-2 0  9992
2 43302  81.2610 185.1469 0034704   1.0960 359.0291 14.29838727462226
0 METEOR 2-11 DEB
1 43309U 84072U   25051.69936631  .00004947  00000-0  35473-2 0  9994
2 43309  82.5285  41.6806 0027459 277.6921  82.1128 13.96684203496011
0 METEOR 2-11 DEB
1 43310U 84072V   25047.76145351  .00002483  00000-0  18874-2 0  9999
2 43310  82.5418  60.6027 0018406  23.6277 336.5729 13.93328696516184
0 COSMOS 1603 DEB
1 43312U 84106AE  25051.03085432  .00002460  00000-0  11698-2 0  9999
2 43312  71.0275 319.6130 0021160 247.1668 112.7222 14.20262227466184
0 COSMOS 1660 DEB
1 43313U 85047CE  25025.06043376  .00000029  00000-0  34269-3 0  9999
2 43313  73.6252 143.6171 0025848  72.8677 100.4436 12.41036175744449
0 COSMOS 1691 DEB
1 43314U 85094Y   25049.58996542  .00000656  00000-0  28881-2 0  9995
2 43314  82.5595 353.4424 0039149 294.3634  65.3382 12.78531188524005
